CCSDS_OMM_VERS = 2.0
CREATION_DATE  = 
ORIGINATOR     = 

OBJECT_NAME    = UNKNOWN
OBJECT_ID      = 
CENTER_NAME    = EARTH
REF_FRAME      = TEME
TIME_SYSTEM    = UTC
MEAN_ELEMENT_THEORY = SGP/SGP4

EPOCH          = 2026-01-22T11:21:33.320448
MEAN_MOTION    = 9.34272562
ECCENTRICITY   = .1552008
INCLINATION    = 54.5286
RA_OF_ASC_NODE = 148.4341
ARG_OF_PERICENTER = 90.3672
MEAN_ANOMALY   = 287.4329

EPHEMERIS_TYPE = 0
CLASSIFICATION_TYPE = U
NORAD_CAT_ID   = 81779
ELEMENT_SET_NO = 999
REV_AT_EPOCH   = 48412
BSTAR          = -.52418E+0
MEAN_MOTION_DOT = -.9541E-4
MEAN_MOTION_DDOT = 0

CCSDS_OMM_VERS = 2.0
CREATION_DATE  = 
ORIGINATOR     = 

OBJECT_NAME    = UNKNOWN
OBJECT_ID      = 
CENTER_NAME    = EARTH
REF_FRAME      = TEME
TIME_SYSTEM    = UTC
MEAN_ELEMENT_THEORY = SGP/SGP4

EPOCH          = 2026-01-18T06:32:22.411968
MEAN_MOTION    = 13.11111422
ECCENTRICITY   = .0896191
INCLINATION    = 65.8274
RA_OF_ASC_NODE = 13.7586
ARG_OF_PERICENTER = 266.3044
MEAN_ANOMALY   = 83.5209

EPHEMERIS_TYPE = 0
CLASSIFICATION_TYPE = U
NORAD_CAT_ID   = 81792
ELEMENT_SET_NO = 999
REV_AT_EPOCH   = 8482
BSTAR          = .84712E-3
MEAN_MOTION_DOT = .2371E-4
MEAN_MOTION_DDOT = 0

CCSDS_OMM_VERS = 2.0
CREATION_DATE  = 
ORIGINATOR     = 

OBJECT_NAME    = UNKNOWN
OBJECT_ID      = 
CENTER_NAME    = EARTH
REF_FRAME      = TEME
TIME_SYSTEM    = UTC
MEAN_ELEMENT_THEORY = SGP/SGP4

EPOCH          = 2026-01-23T04:54:04.035168
MEAN_MOTION    = 12.37692790
ECCENTRICITY   = .0235193
INCLINATION    = 103.8146
RA_OF_ASC_NODE = 305.2055
ARG_OF_PERICENTER = 170.6320
MEAN_ANOMALY   = 189.9233

EPHEMERIS_TYPE = 0
CLASSIFICATION_TYPE = U
NORAD_CAT_ID   = 81812
ELEMENT_SET_NO = 999
REV_AT_EPOCH   = 54569
BSTAR          = .25426E-1
MEAN_MOTION_DOT = .3572E-4
MEAN_MOTION_DDOT = 0

CCSDS_OMM_VERS = 2.0
CREATION_DATE  = 
ORIGINATOR     = 

OBJECT_NAME    = UNKNOWN
OBJECT_ID      = 
CENTER_NAME    = EARTH
REF_FRAME      = TEME
TIME_SYSTEM    = UTC
MEAN_ELEMENT_THEORY = SGP/SGP4

EPOCH          = 2026-01-21T02:37:34.315680
MEAN_MOTION    = 13.89566714
ECCENTRICITY   = .0175558
INCLINATION    = 66.2363
RA_OF_ASC_NODE = 197.9583
ARG_OF_PERICENTER = 223.9994
MEAN_ANOMALY   = 134.6995

EPHEMERIS_TYPE = 0
CLASSIFICATION_TYPE = U
NORAD_CAT_ID   = 81816
ELEMENT_SET_NO = 999
REV_AT_EPOCH   = 61481
BSTAR          = .95521E-3
MEAN_MOTION_DOT = .1243E-4
MEAN_MOTION_DDOT = 0

CCSDS_OMM_VERS = 2.0
CREATION_DATE  = 
ORIGINATOR     = 

OBJECT_NAME    = UNKNOWN
OBJECT_ID      = 
CENTER_NAME    = EARTH
REF_FRAME      = TEME
TIME_SYSTEM    = UTC
MEAN_ELEMENT_THEORY = SGP/SGP4

EPOCH          = 2026-01-19T06:21:12.847392
MEAN_MOTION    = 12.47740488
ECCENTRICITY   = .0028628
INCLINATION    = 102.1723
RA_OF_ASC_NODE = 121.9588
ARG_OF_PERICENTER = 41.2765
MEAN_ANOMALY   = 319.0460

EPHEMERIS_TYPE = 0
CLASSIFICATION_TYPE = U
NORAD_CAT_ID   = 81819
ELEMENT_SET_NO = 999
REV_AT_EPOCH   = 55269
BSTAR          = .79989E-2
MEAN_MOTION_DOT = .1136E-4
MEAN_MOTION_DDOT = 0

CCSDS_OMM_VERS = 2.0
CREATION_DATE  = 
ORIGINATOR     = 

OBJECT_NAME    = UNKNOWN
OBJECT_ID      = 
CENTER_NAME    = EARTH
REF_FRAME      = TEME
TIME_SYSTEM    = UTC
MEAN_ELEMENT_THEORY = SGP/SGP4

EPOCH          = 2026-01-22T22:25:52.774176
MEAN_MOTION    = 14.35933369
ECCENTRICITY   = .0044029
INCLINATION    = 65.8403
RA_OF_ASC_NODE = 224.7878
ARG_OF_PERICENTER = 311.5725
MEAN_ANOMALY   = 48.1598

EPHEMERIS_TYPE = 0
CLASSIFICATION_TYPE = U
NORAD_CAT_ID   = 81824
ELEMENT_SET_NO = 999
REV_AT_EPOCH   = 63050
BSTAR          = .23109E-2
MEAN_MOTION_DOT = .6705E-4
MEAN_MOTION_DDOT = 0

CCSDS_OMM_VERS = 2.0
CREATION_DATE  = 
ORIGINATOR     = 

OBJECT_NAME    = UNKNOWN
OBJECT_ID      = 
CENTER_NAME    = EARTH
REF_FRAME      = TEME
TIME_SYSTEM    = UTC
MEAN_ELEMENT_THEORY = SGP/SGP4

EPOCH          = 2026-01-18T05:39:07.028064
MEAN_MOTION    = 12.93741453
ECCENTRICITY   = .0025643
INCLINATION    = 90.2414
RA_OF_ASC_NODE = 3.7011
ARG_OF_PERICENTER = 290.3486
MEAN_ANOMALY   = 69.4877

EPHEMERIS_TYPE = 0
CLASSIFICATION_TYPE = U
NORAD_CAT_ID   = 81833
ELEMENT_SET_NO = 999
REV_AT_EPOCH   = 45723
BSTAR          = .76826E-3
MEAN_MOTION_DOT = .219E-5
MEAN_MOTION_DDOT = 0

CCSDS_OMM_VERS = 2.0
CREATION_DATE  = 
ORIGINATOR     = 

OBJECT_NAME    = UNKNOWN
OBJECT_ID      = 
CENTER_NAME    = EARTH
REF_FRAME      = TEME
TIME_SYSTEM    = UTC
MEAN_ELEMENT_THEORY = SGP/SGP4

EPOCH          = 2026-01-19T16:32:23.238240
MEAN_MOTION    = 14.57475351
ECCENTRICITY   = .0041123
INCLINATION    = 67.7594
RA_OF_ASC_NODE = 167.0648
ARG_OF_PERICENTER = 329.9936
MEAN_ANOMALY   = 43.0835

EPHEMERIS_TYPE = 0
CLASSIFICATION_TYPE = U
NORAD_CAT_ID   = 81838
ELEMENT_SET_NO = 999
REV_AT_EPOCH   = 63886
BSTAR          = .13083E-2
MEAN_MOTION_DOT = .5938E-4
MEAN_MOTION_DDOT = 0

CCSDS_OMM_VERS = 2.0
CREATION_DATE  = 
ORIGINATOR     = 

OBJECT_NAME    = UNKNOWN
OBJECT_ID      = 
CENTER_NAME    = EARTH
REF_FRAME      = TEME
TIME_SYSTEM    = UTC
MEAN_ELEMENT_THEORY = SGP/SGP4

EPOCH          = 2026-01-23T14:07:44.702976
MEAN_MOTION    = 14.33278427
ECCENTRICITY   = .006256
INCLINATION    = 82.9077
RA_OF_ASC_NODE = 248.2309
ARG_OF_PERICENTER = 24.5796
MEAN_ANOMALY   = 335.8351

EPHEMERIS_TYPE = 0
CLASSIFICATION_TYPE = U
NORAD_CAT_ID   = 81844
ELEMENT_SET_NO = 999
REV_AT_EPOCH   = 62888
BSTAR          = .2148E-2
MEAN_MOTION_DOT = .6058E-4
MEAN_MOTION_DDOT = 0

CCSDS_OMM_VERS = 2.0
CREATION_DATE  = 
ORIGINATOR     = 

OBJECT_NAME    = UNKNOWN
OBJECT_ID      = 
CENTER_NAME    = EARTH
REF_FRAME      = TEME
TIME_SYSTEM    = UTC
MEAN_ELEMENT_THEORY = SGP/SGP4

EPOCH          = 2026-01-21T11:40:20.489664
MEAN_MOTION    = 14.85381644
ECCENTRICITY   = .0087489
INCLINATION    = 97.6746
RA_OF_ASC_NODE = 212.0706
ARG_OF_PERICENTER = 173.4777
MEAN_ANOMALY   = 216.8762

EPHEMERIS_TYPE = 0
CLASSIFICATION_TYPE = U
NORAD_CAT_ID   = 81845
ELEMENT_SET_NO = 999
REV_AT_EPOCH   = 65542
BSTAR          = .7765E-3
MEAN_MOTION_DOT = .7109E-4
MEAN_MOTION_DDOT = 0

CCSDS_OMM_VERS = 2.0
CREATION_DATE  = 
ORIGINATOR     = 

OBJECT_NAME    = UNKNOWN
OBJECT_ID      = 
CENTER_NAME    = EARTH
REF_FRAME      = TEME
TIME_SYSTEM    = UTC
MEAN_ELEMENT_THEORY = SGP/SGP4

EPOCH          = 2026-01-22T20:23:14.582112
MEAN_MOTION    = 13.32576021
ECCENTRICITY   = .0766134
INCLINATION    = 65.6749
RA_OF_ASC_NODE = 330.7786
ARG_OF_PERICENTER = 355.3573
MEAN_ANOMALY   = 4.0625

EPHEMERIS_TYPE = 0
CLASSIFICATION_TYPE = U
NORAD_CAT_ID   = 81864
ELEMENT_SET_NO = 999
REV_AT_EPOCH   = 55631
BSTAR          = .19591E-2
MEAN_MOTION_DOT = .5166E-4
MEAN_MOTION_DDOT = 0

CCSDS_OMM_VERS = 2.0
CREATION_DATE  = 
ORIGINATOR     = 

OBJECT_NAME    = UNKNOWN
OBJECT_ID      = 
CENTER_NAME    = EARTH
REF_FRAME      = TEME
TIME_SYSTEM    = UTC
MEAN_ELEMENT_THEORY = SGP/SGP4

EPOCH          = 2026-01-23T09:17:40.288704
MEAN_MOTION    = 13.88158352
ECCENTRICITY   = .0060492
INCLINATION    = 82.8063
RA_OF_ASC_NODE = 356.5262
ARG_OF_PERICENTER = 246.3862
MEAN_ANOMALY   = 267.8905

EPHEMERIS_TYPE = 0
CLASSIFICATION_TYPE = U
NORAD_CAT_ID   = 81865
ELEMENT_SET_NO = 999
REV_AT_EPOCH   = 61432
BSTAR          = .18536E-2
MEAN_MOTION_DOT = .2259E-4
MEAN_MOTION_DDOT = 0

